NORAD_CAT_ID,OBJECT_NAME,OBJECT_TYPE,EPOCH,MEAN_MOTION,ECCENTRICITY,INCLINATION,RA_OF_ASC_NODE,ARG_OF_PERICENTER,MEAN_ANOMALY,BSTAR,MEAN_MOTION_DOT,MEAN_MOTION_DDOT,TLE_LINE0,TLE_LINE1,TLE_LINE2,SEMIMAJOR_AXIS,PERIOD,APOGEE,PERIGEE,DECAYED
55402.0,STARLINK-5071,PAYLOAD,2023-06-19 20:08:02,15.69922466,0.0003458,69.9994,58.457,271.5933,88.4867,-2.0822e-05,-2.716e-05,0.0,0 STARLINK-5071,1 55402U 23014M   23170.83891629 -.00002716  00000-0 -20822-4 0  9991,2 55402  69.9994  58.4570 0003458 271.5933  88.4867 15.69922466 22042,6737.256,91.724,361.451,356.791,0.0
55402.0,STARLINK-5071,PAYLOAD,2023-06-20 09:53:48,15.69926951,0.0003443,69.9992,56.8426,268.3143,91.7658,6.3673e-06,5.53e-06,0.0,0 STARLINK-5071,1 55402U 23014M   23171.41236318  .00000553  00000-0  63673-5 0  9991,2 55402  69.9992  56.8426 0003443 268.3143  91.7658 15.69926951 23075,6737.243,91.724,361.428,356.788,0.0
55402.0,STARLINK-5071,PAYLOAD,2023-06-20 19:04:18,15.69926175,0.0003595,69.9991,55.7682,267.372,92.7064,1.4893e-05,1.578e-05,0.0,0 STARLINK-5071,1 55402U 23014M   23171.79466359  .00001578  00000-0  14893-4 0  9999,2 55402  69.9991  55.7682 0003595 267.3720  92.7064 15.69926175 23131,6737.245,91.724,361.532,356.688,0.0
55402.0,STARLINK-5071,PAYLOAD,2023-06-21 01:11:19,15.6993036,0.0003514,69.9992,55.0519,267.3952,92.6842,1.5268e-05,1.624e-05,0.0,0 STARLINK-5071,1 55402U 23014M   23172.04952859  .00001624  00000-0  15268-4 0  9992,2 55402  69.9992  55.0519 0003514 267.3952  92.6842 15.69930360 22236,6737.233,91.724,361.466,356.731,0.0
55402.0,STARLINK-5071,PAYLOAD,2023-06-21 02:43:04,15.69928479,0.0003484,69.9994,54.8729,265.7823,94.2974,1.2503e-05,1.291e-05,0.0,0 STARLINK-5071,1 55402U 23014M   23172.11324602  .00001291  00000-0  12503-4 0  9998,2 55402  69.9994  54.8729 0003484 265.7823  94.2974 15.69928479 23180,6737.239,91.724,361.451,356.756,0.0
55402.0,STARLINK-5071,PAYLOAD,2023-06-21 19:32:21,15.69922034,0.0003512,69.9993,52.9021,265.0423,95.0372,1.1418e-05,1.16e-05,0.0,0 STARLINK-5071,1 55402U 23014M   23172.81413345  .00001160  00000-0  11418-4 0  9997,2 55402  69.9993  52.9021 0003512 265.0423  95.0372 15.69922034 22354,6737.257,91.724,361.488,356.756,0.0
55402.0,STARLINK-5071,PAYLOAD,2023-06-22 18:28:37,15.69935002,0.000377,69.9988,50.2149,265.5796,94.4969,3.2939e-05,3.751e-05,0.0,0 STARLINK-5071,1 55402U 23014M   23173.76987802  .00003751  00000-0  32939-4 0  9995,2 55402  69.9988  50.2149 0003770 265.5796  94.4969 15.69935002 22505,6737.22,91.724,361.625,356.545,0.0
55402.0,STARLINK-5071,PAYLOAD,2023-06-23 02:07:23,15.69925297,0.0003881,69.9992,49.319,268.7266,91.3485,8.1184e-06,7.63e-06,0.0,0 STARLINK-5071,1 55402U 23014M   23174.08846543  .00000763  00000-0  81184-5 0  9994,2 55402  69.9992  49.3190 0003881 268.7266  91.3485 15.69925297 22554,6737.248,91.724,361.727,356.498,0.0
55402.0,STARLINK-5071,PAYLOAD,2023-06-24 01:03:40,15.69911671,0.0003489,69.9996,46.6321,268.2113,91.8683,-2.5071e-05,-3.225e-05,0.0,0 STARLINK-5071,1 55402U 23014M   23175.04422179 -.00003225  00000-0 -25071-4 0  9996,2 55402  69.9996  46.6321 0003489 268.2113  91.8683 15.69911671 22707,6737.287,91.725,361.502,356.801,0.0
55402.0,STARLINK-5071,PAYLOAD,2023-06-24 08:42:30,15.69804497,0.0003931,69.9989,45.736,274.7735,85.3012,-0.00026316,-0.00031585,0.0,0 STARLINK-5071,1 55402U 23014M   23175.36285656 -.00031585  00000-0 -26316-3 0  9990,2 55402  69.9989  45.7360 0003931 274.7735  85.3012 15.69804497 22752,6737.593,91.731,362.107,356.81,0.0
55402.0,STARLINK-5071,PAYLOAD,2023-06-24 16:21:29,15.69414502,0.0004224,70.0007,44.8409,277.912,82.1596,-0.0012681,-0.00146965,0.0,0 STARLINK-5071,1 55402U 23014M   23175.68159150 -.00146965  00000-0 -12681-2 0  9992,2 55402  70.0007  44.8409 0004224 277.9120  82.1596 15.69414502 22801,6738.709,91.754,363.421,357.728,0.0
55402.0,STARLINK-5071,PAYLOAD,2023-06-25 01:32:23,15.68955956,0.0004074,69.9999,43.7664,274.4579,85.615,-0.0022107,-0.00248266,0.0,0 STARLINK-5071,1 55402U 23014M   23176.06416408 -.00248266  00000-0 -22107-2 0  9998,2 55402  69.9999  43.7664 0004074 274.4579  85.6150 15.68955956 22864,6740.022,91.781,364.633,359.142,0.0
55402.0,STARLINK-5071,PAYLOAD,2023-06-25 14:00:01,15.67119022,0.0003695,70.0,42.3121,267.3971,141.4321,-0.0094485,-0.00922933,0.0,0 STARLINK-5071,1 55402U 23014M   23176.58334491 -.00922933  00000-0 -94485-2 0  9994,2 55402  70.0000  42.3121 0003695 267.3971 141.4321 15.67119022 22943,6745.288,91.888,369.646,364.661,0.0
55402.0,STARLINK-5071,PAYLOAD,2023-06-26 14:00:01,15.6516232,0.0003721,70.0001,39.5163,265.5838,19.5762,-0.010229,-0.0092328,0.0,0 STARLINK-5071,1 55402U 23014M   23177.58334491 -.00923280  00000-0 -10229-1 0  9994,2 55402  70.0001  39.5163 0003721 265.5838  19.5762 15.65162320 23100,6750.909,92.003,375.286,370.262,0.0
55402.0,STARLINK-5071,PAYLOAD,2023-06-27 14:00:01,15.63216918,0.0003374,70.0004,36.7289,267.0007,247.4475,-0.011286,-0.00941068,0.0,0 STARLINK-5071,1 55402U 23014M   23178.58334491 -.00941068  00000-0 -11286-1 0  9993,2 55402  70.0004  36.7289 0003374 267.0007 247.4475 15.63216918 23250,6756.509,92.118,380.653,376.094,0.0
55402.0,STARLINK-5071,PAYLOAD,2023-06-28 14:00:01,15.61263135,0.000354,70.0002,33.9494,266.1562,110.5427,-0.012293,-0.00948977,0.0,0 STARLINK-5071,1 55402U 23014M   23179.58334491 -.00948977  00000-0 -12293-1 0  9999,2 55402  70.0002  33.9494 0003540 266.1562 110.5427 15.61263135 23412,6762.144,92.233,386.403,381.616,0.0
55402.0,STARLINK-5071,PAYLOAD,2023-06-29 22:00:00,15.58604476,0.0003376,70.0001,30.2563,270.9094,31.1907,-0.012463,-0.00875599,0.0,0 STARLINK-5071,1 55402U 23014M   23180.91667824 -.00875599  00000-0 -12463-1 0  9995,2 55402  70.0001  30.2563 0003376 270.9094  31.1907 15.58604476 23625,6769.832,92.39,393.983,389.412,0.0
55402.0,STARLINK-5071,PAYLOAD,2023-07-01 06:00:00,15.56013285,0.0003249,69.9996,26.577,269.2425,305.7213,-0.01444,-0.00916414,0.0,0 STARLINK-5071,1 55402U 23014M   23182.25001157 -.00916414  00000-0 -14440-1 0  9994,2 55402  69.9996  26.5770 0003249 269.2425 305.7213 15.56013285 23834,6777.346,92.544,401.413,397.009,0.0
55402.0,STARLINK-5071,PAYLOAD,2023-07-02 04:00:00,15.5424294,0.0003505,69.999,24.0559,271.4163,33.8739,-0.016105,-0.00953656,0.0,0 STARLINK-5071,1 55402U 23014M   23183.16667824 -.00953656  00000-0 -16105-1 0  9993,2 55402  69.9990  24.0559 0003505 271.4163  33.8739 15.54242940 23972,6782.491,92.65,406.733,401.979,0.0
55402.0,STARLINK-5071,PAYLOAD,2023-07-04 06:00:02,15.51227342,0.0003569,69.9995,18.3494,271.7131,152.5819,-0.00026735,-0.0001584,0.0,0 STARLINK-5071,1 55402U 23014M   23185.25002315 -.00015840  00000-0 -26735-3 0  9999,2 55402  69.9995  18.3494 0003569 271.7131 152.5819 15.51227342 24299,6791.279,92.83,415.567,410.72,0.0
55402.0,STARLINK-5071,PAYLOAD,2023-07-04 22:00:01,15.51196416,0.0003661,69.9998,16.5265,277.4485,268.693,0.00081102,0.00047716,0.0,0 STARLINK-5071,1 55402U 23014M   23185.91668981  .00047716  00000-0  81102-3 0  9993,2 55402  69.9998  16.5265 0003661 277.4485 268.6930 15.51196416 24409,6791.369,92.832,415.72,410.747,0.0
55402.0,STARLINK-5071,PAYLOAD,2023-07-05 14:00:01,15.51241312,0.0003728,70.0005,14.7035,270.542,37.3918,-0.00019415,-0.0001156,0.0,0 STARLINK-5071,1 55402U 23014M   23186.58335648 -.00011560  00000-0 -19415-3 0  9996,2 55402  70.0005  14.7035 0003728 270.5420  37.3918 15.51241312 24507,6791.238,92.829,415.635,410.571,0.0
55402.0,STARLINK-5071,PAYLOAD,2023-07-06 22:00:01,15.51201484,0.0003717,70.0006,11.0577,275.0887,276.5287,0.00085972,0.0005062,0.0,0 STARLINK-5071,1 55402U 23014M   23187.91668981  .00050620  00000-0  85972-3 0  9992,2 55402  70.0006  11.0577 0003717 275.0887 276.5287 15.51201484 24719,6791.354,92.831,415.743,410.695,0.0
55402.0,STARLINK-5071,PAYLOAD,2023-07-07 14:00:01,15.51250298,0.0003703,70.001,9.2353,269.1192,44.2376,-0.00050929,-0.00029997,0.0,0 STARLINK-5071,1 55402U 23014M   23188.58334491 -.00029997  00000-0 -50929-3 0  9991,2 55402  70.0010   9.2353 0003703 269.1192  44.2376 15.51250298 24810,6791.212,92.828,415.591,410.562,0.0
55402.0,STARLINK-5071,PAYLOAD,2023-07-08 05:40:38,15.51227284,0.0003598,69.998,7.4501,270.865,89.2124,1.0213e-05,4.35e-06,0.0,0 STARLINK-5071,1 55402U 23014M   23189.23655546  .00000435  00000-0  10213-4 0  9998,2 55402  69.9980   7.4501 0003598 270.8650  89.2124 15.51227284 24918,6791.279,92.83,415.587,410.7,0.0
55402.0,STARLINK-5071,PAYLOAD,2023-07-09 12:37:47,15.51225448,0.0003521,69.9983,3.9242,269.1827,90.8956,8.2141e-06,3.18e-06,0.0,0 STARLINK-5071,1 55402U 23014M   23190.52624534  .00000318  00000-0  82141-5 0  9995,2 55402  69.9983   3.9242 0003521 269.1827  90.8956 15.51225448 25111,6791.284,92.83,415.54,410.758,0.0
55402.0,STARLINK-5071,PAYLOAD,2023-07-10 18:02:05,15.51223122,0.0003727,69.9983,0.5734,268.8604,91.2156,1.575e-05,7.6e-06,0.0,0 STARLINK-5071,1 55402U 23014M   23191.75144960  .00000760  00000-0  15750-4 0  9993,2 55402  69.9983   0.5734 0003727 268.8604  91.2156 15.51223122 25302,6791.291,92.83,415.687,410.625,0.0
55402.0,STARLINK-5071,PAYLOAD,2023-07-11 11:04:04,15.50828956,0.0003742,69.9986,358.636,258.1937,101.8829,-0.00084527,-0.00048825,0.0,0 STARLINK-5071,1 55402U 23014M   23192.46115971 -.00048825  00000-0 -84527-3 0  9995,2 55402  69.9986 358.6360 0003742 258.1937 101.8829 15.50828956 25417,6792.442,92.854,416.848,411.765,0.0
55402.0,STARLINK-5071,PAYLOAD,2023-07-11 17:22:42,15.44805953,0.000224,69.9955,357.951,271.9035,88.1892,-0.01641,-0.00713902,0.0,0 STARLINK-5071,1 55402U 23014M   23192.72409765 -.00713902  00000-0 -16410-1 0  9990,2 55402  69.9955 357.9510 0002240 271.9035  88.1892 15.44805953 25452,6810.085,93.216,433.476,430.425,0.0
55402.0,STARLINK-5071,PAYLOAD,2023-07-12 06:00:00,15.48683518,0.0003542,70.0005,356.4828,271.3855,169.0333,-0.017091,-0.00839266,0.0,0 STARLINK-5071,1 55402U 23014M   23193.25001157 -.00839266  00000-0 -17091-1 0  9990,2 55402  70.0005 356.4828 0003542 271.3855 169.0333 15.48683518 25530,6798.713,92.982,422.986,418.17,0.0
